[{"OBJECT_NAME":"STARLINK-34682","OBJECT_ID":"2025-152N","EPOCH":"2026-03-09T13:41:51.387360","MEAN_MOTION":15.0571118,"ECCENTRICITY":0.0001428,"INCLINATION":97.6011,"RA_OF_ASC_NODE":285.4583,"ARG_OF_PERICENTER":105.6053,"MEAN_ANOMALY":254.5332,"EPHEMERIS_TYPE":0,"CLASSIFICATION_TYPE":"U","NORAD_CAT_ID":64854,"ELEMENT_SET_NO":999,"REV_AT_EPOCH":3540,"BSTAR":0.0016039,"MEAN_MOTION_DOT":0.00023196,"MEAN_MOTION_DDOT":0},{"OBJECT_NAME":"OBJECT J","OBJECT_ID":"2025-292J","EPOCH":"2026-03-09T21:49:22.925568","MEAN_MOTION":15.05538385,"ECCENTRICITY":0.00147146,"INCLINATION":97.6397,"RA_OF_ASC_NODE":145.6338,"ARG_OF_PERICENTER":337.2811,"MEAN_ANOMALY":22.7762,"EPHEMERIS_TYPE":0,"CLASSIFICATION_TYPE":"U","NORAD_CAT_ID":67001,"ELEMENT_SET_NO":999,"REV_AT_EPOCH":1350,"BSTAR":0.00042553792,"MEAN_MOTION_DOT":6.079e-5,"MEAN_MOTION_DDOT":0}]
